{
"type": "FeatureCollection",
"name": "crime_centroids_unique",
"crs": { "type": "name", "properties": { "name": "urn:ogc:def:crs:OGC:1.3:CRS84" } },
"features": [
{ "type": "Feature", "properties": { "centroid_id": 6, "x_snap": 514550.0, "y_snap": 3897450.0 }, "geometry": { "type": "Point", "coordinates": [ -80.84012185400104, 35.219978548342006 ] } },
{ "type": "Feature", "properties": { "centroid_id": 4, "x_snap": 513650.0, "y_snap": 3897450.0 }, "geometry": { "type": "Point", "coordinates": [ -80.850011192690417, 35.219991204303717 ] } },
{ "type": "Feature", "properties": { "centroid_id": 9, "x_snap": 515475.0, "y_snap": 3898575.0 }, "geometry": { "type": "Point", "coordinates": [ -80.829936654790316, 35.230108898774972 ] } },
{ "type": "Feature", "properties": { "centroid_id": 7, "x_snap": 514550.0, "y_snap": 3898550.0 }, "geometry": { "type": "Point", "coordinates": [ -80.840102397985547, 35.229897326663249 ] } },
{ "type": "Feature", "properties": { "centroid_id": 1, "x_snap": 512750.0, "y_snap": 3896350.0 }, "geometry": { "type": "Point", "coordinates": [ -80.859917578133576, 35.21008424888268 ] } },
{ "type": "Feature", "properties": { "centroid_id": 5, "x_snap": 513650.0, "y_snap": 3898550.0 }, "geometry": { "type": "Point", "coordinates": [ -80.84999294012465, 35.229909987248071 ] } },
{ "type": "Feature", "properties": { "centroid_id": 8, "x_snap": 515475.0, "y_snap": 3897450.0 }, "geometry": { "type": "Point", "coordinates": [ -80.829957818091955, 35.219964699037078 ] } },
{ "type": "Feature", "properties": { "centroid_id": 2, "x_snap": 512750.0, "y_snap": 3897450.0 }, "geometry": { "type": "Point", "coordinates": [ -80.85990053734777, 35.220003052445819 ] } },
{ "type": "Feature", "properties": { "centroid_id": 3, "x_snap": 513650.0, "y_snap": 3896350.0 }, "geometry": { "type": "Point", "coordinates": [ -80.850029436341046, 35.210072405067564 ] } },
{ "type": "Feature", "properties": { "centroid_id": 0, "x_snap": 511825.0, "y_snap": 3896350.0 }, "geometry": { "type": "Point", "coordinates": [ -80.870080396333776, 35.210095580208034 ] } }
]
}
